{
  "type": "FeatureCollection",
  "features": [
    {
      "type": "Feature",
      "properties": {"name": "Sundarbans"},
      "geometry": {
        "type": "Polygon",
        "coordinates": [[
          [88.0, 21.5], [89.5, 21.5],
          [89.5, 22.5], [88.0, 22.5],
          [88.0, 21.5]
        ]]
      }
    },
    {
      "type": "Feature",
      "properties": {"name": "Bhitarkanika"},
      "geometry": {
        "type": "Polygon",
        "coordinates": [[
          [86.7, 20.6], [87.0, 20.6],
          [87.0, 20.9], [86.7, 20.9],
          [86.7, 20.6]
        ]]
      }
    },
    {
      "type": "Feature",
      "properties": {"name": "Pichavaram"},
      "geometry": {
        "type": "Polygon",
        "coordinates": [[
          [79.7, 11.3], [79.9, 11.3],
          [79.9, 11.5], [79.7, 11.5],
          [79.7, 11.3]
        ]]
      }
    },
    {
      "type": "Feature",
      "properties": {"name": "Gulf of Kutch"},
      "geometry": {
        "type": "Polygon",
        "coordinates": [[
          [69.5, 22.2], [70.5, 22.2],
          [70.5, 22.8], [69.5, 22.8],
          [69.5, 22.2]
        ]]
      }
    }
  ]
}
